start=new Date('2022-08-10T00:00:00.000Z').valueOf();
sats=[{"APOAPSIS":"431.096","REF_FRAME":"TEME","PERIAPSIS":"428.745","BSTAR":"-0.02791200000000","MEAN_ANOMALY":"223.6214","MEAN_MOTION_DDOT":"0.0000000000000","PERIOD":"93.174","OBJECT_TYPE":"PAYLOAD","DECAY_DATE":null,"FILE":"3533123","COUNTRY_CODE":"US","EPHEMERIS_TYPE":"0","OBJECT_ID":"2022-077AG","CLASSIFICATION_TYPE":"U","GP_ID":"209932667","CENTER_NAME":"EARTH","ECCENTRICITY":"0.00017270","RA_OF_ASC_NODE":"41.8502","INCLINATION":"97.6556","REV_AT_EPOCH":"130","RCS_SIZE":"LARGE","SITE":"AFWTR","TIME_SYSTEM":"UTC","MEAN_MOTION_DOT":"-0.01215767","OBJECT_NAME":"STARLINK-4346","MEAN_MOTION":"15.45496855","MEAN_ELEMENT_THEORY":"SGP4","ARG_OF_PERICENTER":"75.9019","SEMIMAJOR_AXIS":"6808.056","ELEMENT_SET_NO":"999","LAUNCH_DATE":"2022-07-11","TLE_LINE2":"2 53073  97.6556  41.8502 0001727  75.9019 223.6214 15.45496855  1302","NORAD_CAT_ID":"53073","TLE_LINE1":"1 53073U 22077AG  22221.91667824 -.01215767  00000-0 -27912-1 0  9991","EPOCH":"2022-08-09T22:00:00.999936"},{"ARG_OF_PERICENTER":"76.6864","MEAN_ELEMENT_THEORY":"SGP4","MEAN_MOTION":"15.44697154","OBJECT_NAME":"STARLINK-4310","SEMIMAJOR_AXIS":"6810.405","TLE_LINE2":"2 53074  97.6556  41.8495 0001749  76.6864 213.1434 15.44697154  1306","LAUNCH_DATE":"2022-07-11","ELEMENT_SET_NO":"999","EPOCH":"2022-08-09T22:00:00.999936","TLE_LINE1":"1 53074U 22077AH  22221.91667824 -.01215294  00000-0 -28674-1 0  9993","NORAD_CAT_ID":"53074","REV_AT_EPOCH":"130","INCLINATION":"97.6556","SITE":"AFWTR","RCS_SIZE":"LARGE","MEAN_MOTION_DOT":"-0.01215294","TIME_SYSTEM":"UTC","FILE":"3533123","GP_ID":"209932156","CLASSIFICATION_TYPE":"U","COUNTRY_CODE":"US","OBJECT_ID":"2022-077AH","EPHEMERIS_TYPE":"0","ECCENTRICITY":"0.00017490","CENTER_NAME":"EARTH","RA_OF_ASC_NODE":"41.8495","PERIAPSIS":"431.079","REF_FRAME":"TEME","APOAPSIS":"433.461","MEAN_MOTION_DDOT":"0.0000000000000","MEAN_ANOMALY":"213.1434","BSTAR":"-0.02867400000000","PERIOD":"93.222","DECAY_DATE":null,"OBJECT_TYPE":"PAYLOAD"},{"MEAN_MOTION_DDOT":"0.0000000000000","BSTAR":"-0.02771600000000","MEAN_ANOMALY":"220.6234","PERIAPSIS":"428.155","APOAPSIS":"430.463","REF_FRAME":"TEME","DECAY_DATE":null,"OBJECT_TYPE":"PAYLOAD","PERIOD":"93.161","GP_ID":"209932417","CLASSIFICATION_TYPE":"U","EPHEMERIS_TYPE":"0","COUNTRY_CODE":"US","OBJECT_ID":"2022-077AJ","FILE":"3533123","RA_OF_ASC_NODE":"41.8486","CENTER_NAME":"EARTH","ECCENTRICITY":"0.00016950","SITE":"AFWTR","RCS_SIZE":"LARGE","REV_AT_EPOCH":"130","INCLINATION":"97.6556","MEAN_MOTION_DOT":"-0.01215871","TIME_SYSTEM":"UTC","SEMIMAJOR_AXIS":"6807.444","ARG_OF_PERICENTER":"82.2284","OBJECT_NAME":"STARLINK-4348","MEAN_MOTION":"15.45705036","MEAN_ELEMENT_THEORY":"SGP4","TLE_LINE1":"1 53075U 22077AJ  22221.91667824 -.01215871  00000-0 -27716-1 0  9991","NORAD_CAT_ID":"53075","EPOCH":"2022-08-09T22:00:00.999936","ELEMENT_SET_NO":"999","LAUNCH_DATE":"2022-07-11","TLE_LINE2":"2 53075  97.6556  41.8486 0001695  82.2284 220.6234 15.45705036  1307"},{"BSTAR":"-0.02798400000000","MEAN_ANOMALY":"225.5504","MEAN_MOTION_DDOT":"0.0000000000000","APOAPSIS":"431.337","REF_FRAME":"TEME","PERIAPSIS":"428.956","OBJECT_TYPE":"PAYLOAD","DECAY_DATE":null,"PERIOD":"93.179","COUNTRY_CODE":"US","EPHEMERIS_TYPE":"0","OBJECT_ID":"2022-077AK","CLASSIFICATION_TYPE":"U","GP_ID":"209931889","FILE":"3533123","RA_OF_ASC_NODE":"41.8511","CENTER_NAME":"EARTH","ECCENTRICITY":"0.00017490","RCS_SIZE":"LARGE","SITE":"AFWTR","INCLINATION":"97.6556","REV_AT_EPOCH":"130","TIME_SYSTEM":"UTC","MEAN_MOTION_DOT":"-0.01215701","SEMIMAJOR_AXIS":"6808.282","OBJECT_NAME":"STARLINK-4347","MEAN_MOTION":"15.45419842","MEAN_ELEMENT_THEORY":"SGP4","ARG_OF_PERICENTER":"72.5240","NORAD_CAT_ID":"53076","TLE_LINE1":"1 53076U 22077AK  22221.91667824 -.01215701  00000-0 -27984-1 0  9991","EPOCH":"2022-08-09T22:00:00.999936","LAUNCH_DATE":"2022-07-11","ELEMENT_SET_NO":"999","TLE_LINE2":"2 53076  97.6556  41.8511 0001749  72.5240 225.5504 15.45419842  1302"},{"REV_AT_EPOCH":"130","INCLINATION":"97.6556","SITE":"AFWTR","RCS_SIZE":"LARGE","MEAN_MOTION_DOT":"-0.01215974","TIME_SYSTEM":"UTC","ARG_OF_PERICENTER":"72.9431","MEAN_MOTION":"15.45816805","MEAN_ELEMENT_THEORY":"SGP4","OBJECT_NAME":"STARLINK-4315","SEMIMAJOR_AXIS":"6807.116","TLE_LINE2":"2 53077  97.6556  41.8479 0001729  72.9431 232.3918 15.45816805  1305","LAUNCH_DATE":"2022-07-11","ELEMENT_SET_NO":"999","EPOCH":"2022-08-09T22:00:00.999936","NORAD_CAT_ID":"53077","TLE_LINE1":"1 53077U 22077AL  22221.91667824 -.01215974  00000-0 -27612-1 0  9992","PERIAPSIS":"427.804","REF_FRAME":"TEME","APOAPSIS":"430.158","MEAN_MOTION_DDOT":"0.0000000000000","MEAN_ANOMALY":"232.3918","BSTAR":"-0.02761200000000","PERIOD":"93.155","DECAY_DATE":null,"OBJECT_TYPE":"PAYLOAD","FILE":"3533123","GP_ID":"209932542","CLASSIFICATION_TYPE":"U","OBJECT_ID":"2022-077AL","COUNTRY_CODE":"US","EPHEMERIS_TYPE":"0","ECCENTRICITY":"0.00017290","CENTER_NAME":"EARTH","RA_OF_ASC_NODE":"41.8479"},{"MEAN_ELEMENT_THEORY":"SGP4","MEAN_MOTION":"15.45700537","OBJECT_NAME":"STARLINK-4322","ARG_OF_PERICENTER":"76.5304","SEMIMAJOR_AXIS":"6807.457","TLE_LINE2":"2 53078  97.6556  41.8495 0001717  76.5304 225.5050 15.45700537  5253","ELEMENT_SET_NO":"999","LAUNCH_DATE":"2022-07-11","EPOCH":"2022-08-09T22:00:00.999936","TLE_LINE1":"1 53078U 22077AM  22221.91667824 -.01215866  00000-0 -27720-1 0  9993","NORAD_CAT_ID":"53078","REV_AT_EPOCH":"525","INCLINATION":"97.6556","RCS_SIZE":"LARGE","SITE":"AFWTR","TIME_SYSTEM":"UTC","MEAN_MOTION_DOT":"-0.01215866","FILE":"3533097","COUNTRY_CODE":"US","EPHEMERIS_TYPE":"0","OBJECT_ID":"2022-077AM","GP_ID":"209906613","CLASSIFICATION_TYPE":"U","ECCENTRICITY":"0.00017170","CENTER_NAME":"EARTH","RA_OF_ASC_NODE":"41.8495","REF_FRAME":"TEME","APOAPSIS":"430.491","PERIAPSIS":"428.154","MEAN_ANOMALY":"225.5050","BSTAR":"-0.02772000000000","MEAN_MOTION_DDOT":"0.0000000000000","PERIOD":"93.162","OBJECT_TYPE":"PAYLOAD","DECAY_DATE":null},{"RA_OF_ASC_NODE":"41.8473","CENTER_NAME":"EARTH","ECCENTRICITY":"0.00017190","COUNTRY_CODE":"US","OBJECT_ID":"2022-077AN","EPHEMERIS_TYPE":"0","GP_ID":"209932020","CLASSIFICATION_TYPE":"U","FILE":"3533123","OBJECT_TYPE":"PAYLOAD","DECAY_DATE":null,"PERIOD":"93.144","BSTAR":"-0.02744500000000","MEAN_ANOMALY":"233.8498","MEAN_MOTION_DDOT":"0.0000000000000","APOAPSIS":"429.625","REF_FRAME":"TEME","PERIAPSIS":"427.285","NORAD_CAT_ID":"53079","TLE_LINE1":"1 53079U 22077AN  22221.91667824 -.01216082  00000-0 -27445-1 0  9999","EPOCH":"2022-08-09T22:00:00.999936","ELEMENT_SET_NO":"999","LAUNCH_DATE":"2022-07-11","TLE_LINE2":"2 53079  97.6555  41.8473 0001719  73.7129 233.8498 15.45995999  1303","SEMIMAJOR_AXIS":"6806.590","OBJECT_NAME":"STARLINK-4327","MEAN_MOTION":"15.45995999","MEAN_ELEMENT_THEORY":"SGP4","ARG_OF_PERICENTER":"73.7129","TIME_SYSTEM":"UTC","MEAN_MOTION_DOT":"-0.01216082","RCS_SIZE":"LARGE","SITE":"AFWTR","INCLINATION":"97.6555","REV_AT_EPOCH":"130"},{"ARG_OF_PERICENTER":"65.6629","OBJECT_NAME":"STARLINK-4330","MEAN_MOTION":"15.45785190","MEAN_ELEMENT_THEORY":"SGP4","SEMIMAJOR_AXIS":"6807.209","ELEMENT_SET_NO":"999","LAUNCH_DATE":"2022-07-11","TLE_LINE2":"2 53080  97.6556  41.8489 0001788  65.6629 238.6326 15.45785190  1307","NORAD_CAT_ID":"53080","TLE_LINE1":"1 53080U 22077AP  22221.91667824 -.01216031  00000-0 -27643-1 0  9995","EPOCH":"2022-08-09T22:00:00.999936","INCLINATION":"97.6556","REV_AT_EPOCH":"130","SITE":"AFWTR","RCS_SIZE":"LARGE","MEAN_MOTION_DOT":"-0.01216031","TIME_SYSTEM":"UTC","FILE":"3533123","CLASSIFICATION_TYPE":"U","GP_ID":"209932287","OBJECT_ID":"2022-077AP","COUNTRY_CODE":"US","EPHEMERIS_TYPE":"0","CENTER_NAME":"EARTH","ECCENTRICITY":"0.00017880","RA_OF_ASC_NODE":"41.8489","PERIAPSIS":"427.857","APOAPSIS":"430.291","REF_FRAME":"TEME","MEAN_MOTION_DDOT":"0.0000000000000","BSTAR":"-0.02764300000000","MEAN_ANOMALY":"238.6326","PERIOD":"93.157","DECAY_DATE":null,"OBJECT_TYPE":"PAYLOAD"},{"RCS_SIZE":"LARGE","SITE":"AFWTR","REV_AT_EPOCH":"130","INCLINATION":"97.6555","TIME_SYSTEM":"UTC","MEAN_MOTION_DOT":"-0.01216171","SEMIMAJOR_AXIS":"6806.269","MEAN_MOTION":"15.46105354","MEAN_ELEMENT_THEORY":"SGP4","OBJECT_NAME":"STARLINK-4326","ARG_OF_PERICENTER":"72.7916","EPOCH":"2022-08-09T22:00:00.999936","TLE_LINE1":"1 53081U 22077AQ  22221.91667824 -.01216171  00000-0 -27344-1 0  9999","NORAD_CAT_ID":"53081","TLE_LINE2":"2 53081  97.6555  41.8455 0001718  72.7916 237.1908 15.46105354  1300","LAUNCH_DATE":"2022-07-11","ELEMENT_SET_NO":"999","MEAN_ANOMALY":"237.1908","BSTAR":"-0.02734400000000","MEAN_MOTION_DDOT":"0.0000000000000","REF_FRAME":"TEME","APOAPSIS":"429.303","PERIAPSIS":"426.965","OBJECT_TYPE":"PAYLOAD","DECAY_DATE":null,"PERIOD":"93.137","EPHEMERIS_TYPE":"0","COUNTRY_CODE":"US","OBJECT_ID":"2022-077AQ","CLASSIFICATION_TYPE":"U","GP_ID":"209932668","FILE":"3533123","RA_OF_ASC_NODE":"41.8455","ECCENTRICITY":"0.00017180","CENTER_NAME":"EARTH"},{"DECAY_DATE":null,"OBJECT_TYPE":"PAYLOAD","PERIOD":"93.138","MEAN_MOTION_DDOT":"0.0000000000000","BSTAR":"-0.02735900000000","MEAN_ANOMALY":"229.4845","PERIAPSIS":"427.038","APOAPSIS":"429.335","REF_FRAME":"TEME","RA_OF_ASC_NODE":"41.8463","CENTER_NAME":"EARTH","ECCENTRICITY":"0.00016880","GP_ID":"209932157","CLASSIFICATION_TYPE":"U","COUNTRY_CODE":"US","OBJECT_ID":"2022-077AR","EPHEMERIS_TYPE":"0","FILE":"3533123","MEAN_MOTION_DOT":"-0.01216088","TIME_SYSTEM":"UTC","SITE":"AFWTR","RCS_SIZE":"LARGE","INCLINATION":"97.6555","REV_AT_EPOCH":"130","NORAD_CAT_ID":"53082","TLE_LINE1":"1 53082U 22077AR  22221.91667824 -.01216088  00000-0 -27359-1 0  9993","EPOCH":"2022-08-09T22:00:00.999936","ELEMENT_SET_NO":"999","LAUNCH_DATE":"2022-07-11","TLE_LINE2":"2 53082  97.6555  41.8463 0001688  79.5799 229.4845 15.46087492  1306","SEMIMAJOR_AXIS":"6806.322","ARG_OF_PERICENTER":"79.5799","OBJECT_NAME":"STARLINK-4321","MEAN_MOTION":"15.46087492","MEAN_ELEMENT_THEORY":"SGP4"}];
